{
    "links": {
        "self": "http://www.neowsapp.com/rest/v1/neo/3799833?api_key=iIulBulltgU6a56xZRHN4H3l9WmuAYTsLGpBGhQ2"
    },
    "id": "3799833",
    "neo_reference_id": "3799833",
    "name": "(2018 EX1)",
    "designation": "2018 EX1",
    "nasa_jpl_url": "http://ssd.jpl.nasa.gov/sbdb.cgi?sstr=3799833",
    "absolute_magnitude_h": 26.0,
    "estimated_diameter": {
        "kilometers": {
            "estimated_diameter_min": 0.0167708462,
            "estimated_diameter_max": 0.0375007522
        },
        "meters": {
            "estimated_diameter_min": 16.7708462163,
            "estimated_diameter_max": 37.5007521798
        },
        "miles": {
            "estimated_diameter_min": 0.0104209175,
            "estimated_diameter_max": 0.0233018799
        },
        "feet": {
            "estimated_diameter_min": 55.0224631002,
            "estimated_diameter_max": 123.0339677816
        }
    },
    "is_potentially_hazardous_asteroid": false,
    "close_approach_data": [
        {
            "close_approach_date": "2018-03-04",
            "close_approach_date_full": "2018-Mar-04 09:54",
            "epoch_date_close_approach": 1520157240000,
            "relative_velocity": {
                "kilometers_per_second": "9.374637377",
                "kilometers_per_hour": "33748.6945572197",
                "miles_per_hour": "20970.1263486236"
            },
            "miss_distance": {
                "astronomical": "0.0208220797",
                "lunar": "8.0997890033",
                "kilometers": "3114938.772090239",
                "miles": "1935533.2011097382"
            },
            "orbiting_body": "Earth"
        }
    ],
    "orbital_data": {
        "orbit_id": "4",
        "orbit_determination_date": "2018-03-20 06:49:45",
        "first_observation_date": "2018-03-09",
        "last_observation_date": "2018-03-18",
        "data_arc_in_days": 9,
        "observations_used": 31,
        "orbit_uncertainty": "8",
        "minimum_orbit_intersection": ".0143542",
        "jupiter_tisserand_invariant": "3.803",
        "epoch_osculation": "2458187.5",
        "eccentricity": ".4741394318270659",
        "semi_major_axis": "1.882116760174376",
        "inclination": "11.24453148063335",
        "ascending_node_longitude": "162.5165995533542",
        "orbital_period": "943.1228563637105",
        "perihelion_distance": ".9897309888730993",
        "perihelion_argument": "341.1770715526453",
        "aphelion_distance": "2.774502531475653",
        "perihelion_time": "2458166.039017382425",
        "mean_anomaly": "8.191884747778316",
        "mean_motion": ".3817106091437655",
        "equinox": "J2000",
        "orbit_class": {
            "orbit_class_type": "APO",
            "orbit_class_description": "Near-Earth asteroid orbits which cross the Earth’s orbit similar to that of 1862 Apollo",
            "orbit_class_range": "a (semi-major axis) > 1.0 AU; q (perihelion) < 1.017 AU"
        }
    },
    "is_sentry_object": false
}